line1,line2,validFromUtcTime
1 00000U 00000E   26001.00000000  .00000000  00000-0  27772-4 0    01,2 00000  88.8731 120.3344 0010062 269.9754 284.9534 13.55302236    00,2026-01-01T00:00:00Z
1 00000U 00000E   26002.00000000  .00000000  00000-0  27772-4 0    02,2 00000  88.8731 120.2198 0010062 267.0656 124.0400 13.55302274    04,2026-01-02T00:00:00Z
